EUTELSAT 21B            
1 38992U 12062B   25355.19754341  .00000153  00000+0  00000+0 0  9993
2 38992   0.0683 341.4531 0003259 292.8644 268.4151  1.00269375 48041
EUTELSAT 70B            
1 39020U 12069A   25355.20716347 -.00000020  00000+0  00000+0 0  9993
2 39020   0.0614   6.4961 0004263 247.9023 340.6999  1.00271519 47721
EUTELSAT 117 WEST A     
1 39122U 13012A   25355.18845947  .00000010  00000+0  00000+0 0  9999
2 39122   0.0286 304.2421 0002596 329.3971 127.4345  1.00270307 46643
EUTELSAT 7B             
1 39163U 13022A   25355.14767139  .00000071  00000+0  00000+0 0  9994
2 39163   0.0651   0.6593 0004387 321.5749 187.8946  1.00270930 46164
EXPRESS-AT1             
1 39612U 14010A   25355.13306301  .00000101  00000+0  00000+0 0  9994
2 39612   0.0169 305.1797 0000860 200.8222  47.8580  1.00273021 43039
EXPRESS-AT2             
1 39613U 14010B   25355.14952978 -.00000258  00000+0  00000+0 0  9997
2 39613   0.0190 327.4725 0001060 327.2965 348.8895  1.00270951 42719
EUTELSAT 3B             
1 39773U 14030A   25355.12248961  .00000043  00000+0  00000+0 0  9995
2 39773   0.0610   7.8675 0004154 225.4448 263.8264  1.00272656 42280
EUTELSAT 115 WEST B     
1 40425U 15010B   25355.18719009 -.00000002  00000+0  00000+0 0  9998
2 40425   0.0159 149.3637 0000333 179.3265  73.8064  1.00269059 39605
